# From MPC106342
C/1995 O1 (Hale-Bopp),e,89.0741,283.1821,130.4859,178.2639,0.0004141,0.99495667,0.0000,03/29.7467/1997,2000,g -2.0,4.0
# From NK 1615
P/1996 R2 (Lagerkvist),e,2.6005,40.0202,333.3266,3.774971,0.1343797,0.31423974,119.4795,07/20.0/2021,2000,g 11.5,4.0
# From MPC 30063
P/1997 B1 (Kobayashi),e,12.3395,328.8816,183.3351,8.575693,0.0392464,0.76025433,350.1197,07/20.0/2021,2000,g 15.0,2.0
# From MPC 75703
P/1998 VS24 (LINEAR),e,5.0261,159.0356,244.6209,4.528132,0.1022882,0.24233145,130.8044,07/20.0/2021,2000,g 13.0,2.0
# From NK 731
P/1999 RO28 (LONEOS),e,7.5673,137.8857,231.2641,3.426697,0.1553783,0.67225179,117.2673,07/20.0/2021,2000,g 20.0,2.0
# From MPC 75704
P/1999 XN120 (Catalina),e,5.0296,285.2965,161.8223,4.179064,0.1153680,0.21021443,173.2136,07/20.0/2021,2000,g 13.5,2.0
# From NK 744
P/2000 R2 (LINEAR),e,11.6863,160.2874,176.5425,3.466710,0.1526960,0.53161099,116.5773,07/20.0/2021,2000,g 18.0,4.0
# From MPC 43019
P/2001 H5 (NEAT),e,8.3668,328.6830,224.8440,6.097676,0.0654572,0.59839943,137.5892,07/20.0/2021,2000,g 12.0,4.0
# From MPC 75704
P/2001 Q6 (NEAT),e,56.9087,22.1582,42.9306,7.953784,0.0439383,0.82298776,318.0927,07/20.0/2021,2000,g 13.5,4.0
# From MPC 47727
P/2002 EJ57 (LINEAR),e,4.9762,330.3258,167.3559,6.470213,0.0598861,0.59239829,67.5545,07/20.0/2021,2000,g 12.5,4.0
# From MPC109588
P/2002 T6 (NEAT-LINEAR),e,10.8376,206.2593,219.6646,7.685958,0.0462548,0.56075244,309.2041,07/20.0/2021,2000,g 10.5,4.0
# From MPC 75007
C/2002 VQ94 (LINEAR),e,70.6133,35.0590,100.1182,185.0260,0.0003916,0.96309075,2.2136,07/20.0/2021,2000,g  9.5,2.0
# From MPC 50354
P/2003 F2 (NEAT),e,11.6061,359.0305,192.1111,6.499781,0.0594780,0.54227836,36.5973,07/20.0/2021,2000,g 16.5,2.0
# From MPC 50139
P/2003 QX29 (NEAT),e,11.3901,264.5661,37.5009,8.026989,0.0433386,0.47298481,295.9717,07/20.0/2021,2000,g  8.5,4.0
# From MPC105235
P/2003 T12 (SOHO),e,11.0196,174.5770,219.7552,2.585945,0.2370146,0.76977305,104.0721,07/20.0/2021,2000,g 17.0,4.0
# From MPC 82312
P/2004 A1 (LONEOS),e,10.5516,124.8480,21.2905,7.961311,0.0438760,0.30934020,271.7513,07/20.0/2021,2000,g  6.5,4.0
# From MPC 54558
P/2004 DO29 (Spacewatch-LINEAR),e,14.5323,147.3727,40.6639,7.285954,0.0501158,0.44114073,307.3501,07/20.0/2021,2000,g 13.5,2.0
# From MPC 54823
P/2004 FY140 (LINEAR),e,2.1348,326.7620,242.3862,4.903449,0.0907719,0.16822628,198.7149,07/20.0/2021,2000,g 12.5,2.0
# From MPC 53304
P/2004 R3 (LINEAR-NEAT),e,12.8021,305.4563,38.0049,4.790630,0.0939973,0.25956565,353.8499,07/20.0/2021,2000,g 14.5,4.0
# From MPC 55521
P/2004 V3 (Siding Spring),e,50.4408,356.1243,322.3596,7.140146,0.0516587,0.44632498,315.8197,07/20.0/2021,2000,g 11.5,4.0
# From MPC 75705
P/2004 V5 (LINEAR-Hill),e,19.3418,47.7846,87.6957,7.980114,0.0437210,0.44364474,262.9299,07/20.0/2021,2000,g  8.0,4.0
# From MPC 54164
P/2005 E1 (Tubbiolo),e,4.2638,335.5676,194.0481,7.040968,0.0527540,0.37514452,317.7167,07/20.0/2021,2000,g 10.0,4.0
# From MPC 54823
P/2005 GF8 (LONEOS),e,1.1900,314.7597,284.7143,5.830547,0.0700068,0.51740296,46.2708,07/20.0/2021,2000,g 11.5,4.0
# From MPC 79019
P/2005 J1 (McNaught),e,31.7601,268.8129,338.9617,3.570519,0.1460855,0.56958156,147.7709,07/20.0/2021,2000,g 16.5,4.0
# From MPC 74246
P/2005 L1 (McNaught),e,7.7386,138.2478,149.7272,3.976026,0.1243169,0.20960265,346.8549,07/20.0/2021,2000,g  9.5,4.0
# From MPC 75706
P/2005 S2 (Skiff),e,3.1357,161.2107,229.1697,8.014354,0.0434411,0.19749781,241.1003,07/20.0/2021,2000,g  7.5,4.0
# From MPC 75706
P/2005 SB216 (LONEOS),e,24.0882,1.1838,83.3529,7.132639,0.0517403,0.46375754,274.9818,07/20.0/2021,2000,g 12.0,2.0
# From MPC 55717
P/2005 T2 (Christensen),e,8.2919,260.1601,58.8421,3.846776,0.1306348,0.41636772,61.0814,07/20.0/2021,2000,g 14.5,4.0
# From MPC 73461
P/2005 T3 (Read),e,6.2237,27.7128,6.7963,7.583111,0.0471990,0.17448284,272.4292,07/20.0/2021,2000,g  9.0,4.0
# From MPC 73461
P/2005 T4 (SWAN),e,160.2166,25.7675,41.6725,9.361261,0.0344114,0.92975307,198.6021,07/20.0/2021,2000,g 15.0,4.0
# From MPC 75706
P/2005 T5 (Broughton),e,21.3620,57.0016,304.5737,7.289006,0.0500843,0.55235516,288.6175,07/20.0/2021,2000,g 11.0,4.0
# From MPC 56954
P/2005 W3 (Kowalski),e,16.4204,210.0853,200.7293,6.328618,0.0619071,0.54334465,356.1061,07/20.0/2021,2000,g 12.0,4.0
# From MPC 75706
P/2005 Y2 (McNaught),e,19.0557,94.3970,193.8887,6.378431,0.0611833,0.47031947,16.7354,07/20.0/2021,2000,g  9.0,4.0
# From MPC 56954
P/2006 F4 (Spacewatch),e,12.4264,183.8273,30.9354,3.521234,0.1491632,0.34024880,107.0338,07/20.0/2021,2000,g 15.0,4.0
# From MPC 75707
P/2006 HR30 (Siding Spring),e,31.8314,309.8987,117.2934,7.811118,0.0451476,0.84235562,240.7928,07/20.0/2021,2000,g 11.0,4.0
# From MPEC 2021-M34
P/2006 S4 (Christensen),e,39.5316,36.0747,305.1408,6.317091,0.0620767,0.50844657,348.9583,07/20.0/2021,2000,g 11.0,4.0
# From MPC 75707
P/2007 A2 (Christensen),e,26.4877,300.9077,186.7294,6.328724,0.0619056,0.55780156,329.2198,07/20.0/2021,2000,g 13.5,4.0
# From MPC 75707
P/2007 C2 (Catalina),e,8.6332,275.4967,180.0530,6.992320,0.0533055,0.47098375,268.8534,07/20.0/2021,2000,g 10.0,4.0
# From MPC 84315
C/2007 D1 (LINEAR),e,41.5017,171.2130,340.0016,1389,0.0000190,0.99365154,0.0000,06/08.2447/2007,2000,g  3.5,4.0
# From MPC 82314
P/2007 K2 (Gibbs),e,7.6316,188.6415,347.4328,7.266286,0.0503194,0.68306071,259.8426,07/20.0/2021,2000,g 14.0,4.0
# From MPC 60925
P/2007 Q2 (Gilmore),e,10.2027,172.1594,162.7810,5.652681,0.0733369,0.67010859,17.2361,07/20.0/2021,2000,g 16.0,4.0
# From MPC 75708
P/2007 R4 (Garradd),e,20.2117,87.2080,282.5867,5.935795,0.0681531,0.67022706,350.3417,07/20.0/2021,2000,g 14.5,4.0
# From MPC 73462
P/2007 S1 (Zhao),e,5.9640,141.3705,245.5680,3.817156,0.1321582,0.33959281,301.1818,07/20.0/2021,2000,g 13.0,4.0
# From MPC 61994
P/2007 T2 (Kowalski),e,9.7493,3.3749,359.6401,3.046825,0.1853245,0.78543988,202.3708,07/20.0/2021,2000,g 18.5,4.0
# From MPEC 2021-N06
P/2008 CL94 (Lemmon),e,8.3463,33.3184,80.4408,6.163113,0.0644175,0.12041368,355.9761,07/20.0/2021,2000,g 10.0,4.0
# From MPC 75709
P/2008 L2 (Hill),e,25.8632,218.0096,141.2278,6.028333,0.0665899,0.61323511,316.0445,07/20.0/2021,2000,g 12.5,4.0
# From MPC 64114
P/2008 O3 (Boattini),e,32.2777,47.5841,341.1051,8.220724,0.0418157,0.69556708,200.8855,07/20.0/2021,2000,g 13.0,4.0
# From MPC 75709
P/2008 QP20 (LINEAR-Hill),e,7.5224,322.0725,75.5300,3.553217,0.1471538,0.49167227,335.5511,07/20.0/2021,2000,g 15.5,4.0
# From MPC 66204
P/2008 WZ96 (LINEAR),e,7.1117,56.4460,341.9334,3.486875,0.1513734,0.46980574,354.2799,07/20.0/2021,2000,g 13.5,4.0
# From MPC 75710
P/2008 Y3 (McNaught),e,38.7677,262.8063,238.1918,8.047080,0.0431764,0.44545182,198.3277,07/20.0/2021,2000,g  8.5,4.0
# From MPC 75710
P/2009 B1 (Boattini),e,22.2210,297.0889,128.8760,6.737171,0.0563622,0.63491191,258.0832,07/20.0/2021,2000,g 13.0,4.0
# From MPC 66466
C/2009 G1 (STEREO),e,108.7198,120.4479,175.4317,440.4520,0.0001066,0.99741798,0.0000,04/16.1171/2009,2000,g  9.0,4.0
# From MPC 75710
P/2009 O3 (Hill),e,16.2761,183.6996,154.4272,7.768940,0.0455157,0.68779923,202.1213,07/20.0/2021,2000,g 12.5,4.0
# From MPC 68902
P/2009 Q5 (McNaught),e,40.9855,160.2762,209.0324,7.435440,0.0486121,0.60915190,210.7455,07/20.0/2021,2000,g 10.0,4.0
# From MPC112389
P/2009 T2 (La Sagra),e,27.5681,215.8283,216.3770,7.722894,0.0459234,0.76545456,193.9242,07/20.0/2021,2000,g 14.0,4.0
# From MPC105235
P/2009 WX51 (Catalina),e,9.5943,31.6691,118.1073,3.081277,0.1822250,0.74024329,44.7629,07/20.0/2021,2000,g 19.0,2.0
# From MPC 74247
P/2009 Y2 (Kowalski),e,29.9356,262.0263,172.1430,6.550072,0.0587943,0.63608631,244.5839,07/20.0/2021,2000,g 13.0,4.0
# From MPC 75711
P/2010 A3 (Hill),e,14.8356,63.8579,42.1296,6.078760,0.0657630,0.73349542,272.4206,07/20.0/2021,2000,g 14.0,4.0
# From MPC 75008
P/2010 C1 (Scotti),e,9.1281,141.8861,3.6513,7.103629,0.0520575,0.25888454,222.2075,07/20.0/2021,2000,g  9.5,4.0
# From MPC 75008
P/2010 D2 (WISE),e,57.0858,319.8909,120.0289,6.717382,0.0566114,0.45102300,236.4007,07/20.0/2021,2000,g 16.0,4.0
# From MPC 75009
P/2010 E2 (Jarnac),e,15.3943,177.8230,8.3578,8.639283,0.0388139,0.71982203,160.2460,07/20.0/2021,2000,g 14.0,4.0
# From MPC 72851
P/2010 H2 (Vales),e,14.2745,64.1960,128.1050,3.833437,0.1313172,0.19591253,185.2172,07/20.0/2021,2000,g  6.0,4.0
# From MPC 70361
P/2010 H3 (SOHO),e,23.0764,77.0943,26.1492,3.037670,0.1861629,0.98537208,0.0000,02/07.9608/2021,2000,g 20.0,2.0
# From MPC 73463
P/2010 H4 (Scotti),e,2.3183,44.7384,179.5212,6.592553,0.0582269,0.26702400,235.8629,07/20.0/2021,2000,g 10.5,4.0
# From MPC 74637
P/2010 H5 (Scotti),e,14.0624,24.8039,175.1540,7.162881,0.0514129,0.15310509,212.1079,07/20.0/2021,2000,g 13.0,2.0
# From MPC 98558
P/2010 J3 (McMillan),e,13.2847,106.4216,157.5990,8.973603,0.0366652,0.72678731,145.8375,07/20.0/2021,2000,g 11.0,4.0
# From MPC 84315
P/2010 JC81 (WISE),e,38.7590,30.8506,12.4283,8.109201,0.0426812,0.77710578,159.7860,07/20.0/2021,2000,g  9.0,4.0
# From MPC 74248
P/2010 T2 (PANSTARRS),e,7.8953,58.8486,353.3126,5.532584,0.0757377,0.32159841,286.0653,07/20.0/2021,2000,g 11.5,4.0
# From MPC 98558
P/2010 TO20 (LINEAR-Grauer),e,2.4789,43.2927,266.8639,5.831072,0.0699973,0.05510531,325.8040,07/20.0/2021,2000,g  9.0,4.0
# From MPC 82316
P/2010 U1 (Boattini),e,8.2153,280.7061,85.9826,6.509014,0.0593514,0.24851098,248.8457,07/20.0/2021,2000,g  9.5,4.0
# From MPC xxxxx
C/2010 U3 (Boattini),e,55.5306,43.0184,88.0594,2262,0.0000092,0.99626680,0.0000,02/25.5322/2019,2000,g  1.0,4.0
# From MPC 79021
P/2010 UH55 (Spacewatch),e,8.0410,232.9416,225.1716,6.653053,0.0574345,0.56335732,215.6248,07/20.0/2021,2000,g 11.0,4.0
# From MPC 75009
P/2010 WK (LINEAR),e,11.4012,11.3252,40.9688,5.761590,0.0712673,0.69001016,281.7509,07/20.0/2021,2000,g 14.5,2.0
# From MPC 82317
P/2011 A2 (Scotti),e,4.4748,54.6762,94.5115,3.106125,0.1800428,0.49950477,335.7595,07/20.0/2021,2000,g 16.5,4.0
# From MPC 84021
P/2011 C2 (Gibbs),e,10.8850,12.1242,160.8740,7.413721,0.0488258,0.26888679,170.4399,07/20.0/2021,2000,g  9.0,4.0
# From MPC 79866
